CCSDS_OEM_VERS = 2.0  
CREATION_DATE  = 2026-03-24T10:46:29
ORIGINATOR     = ESOC/OPS-GFA                            
 
 



META_START
OBJECT_NAME          = LISA                                    
OBJECT_ID            = -1000                                   
CENTER_NAME          = SUN                     
REF_FRAME            = EME2000 
TIME_SYSTEM          = TCB
START_TIME           = 2036-12-23T00:00:30.346418            
STOP_TIME            = 2047-09-06T04:30:56.657670            
INTERPOLATION        = HERMITE                                 
INTERPOLATION_DEGREE = 7                                       
META_STOP

2044-02-05T10:08:52.854495    -5.81508154052584469e+07    1.26447743252223879e+08    5.34813667195391580e+07   -2.75290800288087780e+01   -1.07015685550760953e+01   -4.68600143841487515e+00    2.32819109739591188e-06   -5.06283966880651211e-06   -2.14133561561963410e-06
2044-02-06T06:15:55.263604    -6.01383622093476504e+07    1.25659459768211693e+08    5.31363914585240111e+07   -2.73575796808962721e+01   -1.10671002476017115e+01   -4.84058683920395882e+00    2.40783839638041859e-06   -5.03141716304468895e-06   -2.12758215067655233e-06
2044-02-07T02:22:57.672714    -6.21132801106075048e+07    1.24844786940101713e+08    5.27802572147340998e+07   -2.71803294014538928e+01   -1.14303173336985857e+01   -4.99415972470640757e+00    2.48697693167376848e-06   -4.99892119538229098e-06   -2.11337473638046243e-06
2044-02-07T22:30:00.081823    -6.40751540622468218e+07    1.24003895233334094e+08    5.24130385161292329e+07   -2.69973666666501444e+01   -1.17911423231148937e+01   -5.14668732925800843e+00    2.56558931835582377e-06   -4.96535878072746483e-06   -2.09871644103023838e-06
2044-02-08T18:37:02.490932    -6.60235717684983015e+07    1.23136960699332997e+08    5.20348122523808181e+07   -2.68087302071764029e+01   -1.21494982430482086e+01   -5.29813711338830906e+00    2.64365829730911579e-06   -4.93073719334021141e-06   -2.08361044258619362e-06
2044-02-09T14:44:04.900041    -6.79581237635618448e+07    1.22244164926536500e+08    5.16456576536610648e+07   -2.66144599990418804e+01   -1.25053086567513621e+01   -5.44847677168685696e+00    2.72116673740772717e-06   -4.89506396125955628e-06   -2.06806002629016743e-06
2044-02-10T10:51:07.309151    -6.98784034961462021e+07    1.21325694995714590e+08    5.12456562712280527e+07   -2.64145972542994407e+01   -1.28584976815854137e+01   -5.59767424043402606e+00    2.79809763524344483e-06   -4.85834685662008854e-06   -2.05206858054992530e-06
2044-02-11T06:58:09.718261    -7.17840074238879085e+07    1.20381743443469271e+08    5.08348919614412338e+07   -2.62091844118800630e+01   -1.32089900062227379e+01   -5.74569770487104670e+00    2.87443411238749601e-06   -4.82059388183871190e-06   -2.03563959107975004e-06
2044-02-12T03:05:12.127370    -7.36745351219270527e+07    1.19412508237810627e+08    5.04134508748421147e+07   -2.59982651287138324e+01   -1.35567109067034259e+01   -5.89251560598390345e+00    2.95015941022520539e-06   -4.78181325177917926e-06   -2.01877663334276955e-06
2044-02-12T23:12:14.536480    -7.55495894099193215e+07    1.18418192769702941e+08    4.99814214519347176e+07   -2.57818842713152208e+01   -1.39015862610480507e+01   -6.03809664667574530e+00    3.02525688230789366e-06   -4.74201337174694837e-06   -2.00148336323248230e-06
2044-02-13T19:19:16.945589    -7.74087765017631352e+07    1.17399005864474788e+08    4.95388944273006842e+07   -2.55600879080105585e+01   -1.42435425621300205e+01   -6.18240979720244077e+00    3.09970998423938713e-06   -4.70120281135570737e-06   -1.98376350601128410e-06
2044-02-14T15:28:29.303045    -7.92549978759562522e+07    1.16353266602876395e+08    4.90851407639560103e+07   -2.53325108909953407e+01   -1.45831124221587221e+01   -6.32567973460546984e+00    3.17363440353637891e-06   -4.65931493896018913e-06   -1.96558815915947577e-06
2044-02-15T11:37:41.660501    -8.10845140417533815e+07    1.15283001880658895e+08    4.86210407394600436e+07   -2.50995950276498263e+01   -1.49196070296740633e+01   -6.46761574052209731e+00    3.24687954298860889e-06   -4.61643105162227069e-06   -1.94699263279243417e-06
2044-02-16T07:46:54.017957    -8.28969394869662821e+07    1.14188437441265374e+08    4.81466922415478230e+07   -2.48613901832972743e+01   -1.52529544658266030e+01   -6.60818747923698790e+00    3.31942937744380597e-06   -4.57256067181457911e-06   -1.92798105482687578e-06
2044-02-17T03:56:06.375412    -8.46918923003863096e+07    1.13069804189015999e+08    4.76621953347253278e+07   -2.46179473817843650e+01   -1.55830835092233375e+01   -6.74736491730198296e+00    3.39126799989188091e-06   -4.52771350632884905e-06   -1.90855763097816176e-06
2044-02-18T00:05:18.732868    -8.64689943059641719e+07    1.11927338166288570e+08    4.71676522499065399e+07   -2.43693187960827160e+01   -1.59099236498863448e+01   -6.88511832942584512e+00    3.46237964360966429e-06   -4.48189946172804756e-06   -1.88872665122800944e-06
2044-02-18T20:14:31.090324    -8.82278711722181737e+07    1.10761280516088739e+08    4.66631673679597676e+07   -2.41155577374168644e+01   -1.62334051041975833e+01   -7.02141830477651308e+00    3.53274870068495247e-06   -4.43512865617241174e-06   -1.86849249476745300e-06
2044-02-19T16:23:43.447780    -8.99681525021146983e+07    1.09571877432955727e+08    4.61488471983897239e+07   -2.38567186431794767e+01   -1.65534588305702997e+01   -7.15623575358673136e+00    3.60235973692554577e-06   -4.38741142762415716e-06   -1.84785963341726550e-06
2044-02-20T12:32:55.805236    -9.16894719086452872e+07    1.08359380105156690e+08    4.56248003543857560e+07   -2.35928570638962078e+01   -1.68700165455840363e+01   -7.28954191395247442e+00    3.67119750314580576e-06   -4.33875833842129823e-06   -1.82683263352161785e-06
2044-02-21T08:42:08.162690    -9.33914670813249350e+07    1.07124044651123703e+08    4.50911375254662558e+07   -2.33240296495027160e+01   -1.71830107403203378e+01   -7.42130835871362038e+00    3.73924694284390480e-06   -4.28918017623780411e-06   -1.80541615632230690e-06
2044-02-22T04:51:20.520146    -9.50737798488365412e+07    1.05866132053086460e+08    4.45479714489496201e+07   -2.30502941351962534e+01   -1.74923746966360945e+01   -7.55150700230626271e+00    3.80649319624826937e-06   -4.23868795140188303e-06   -1.78361495680172410e-06
2044-02-23T01:00:32.877602    -9.67360562430458367e+07    1.04585908090854630e+08    4.39954168814817891e+07   -2.27717093271243485e+01   -1.77980425031116702e+01   -7.68011010747613021e+00    3.87292160076385369e-06   -4.18729289061141883e-06   -1.76143388101085617e-06
2044-02-23T21:09:45.235058    -9.83779465696117133e+07    1.03283643278703034e+08    4.34335905718507171e+07   -2.24883350881729633e+01   -1.80999490704107195e+01   -7.80709029174252755e+00    3.93851768779092036e-06   -4.13500642701539051e-06   -1.73887786186937941e-06
2044-02-24T17:18:57.592514    -9.99991054904164821e+07    1.01959612808313578e+08    4.28626112363179028e+07   -2.22002323241166799e+01   -1.83980301457888373e+01   -7.93242053350221177e+00    4.00326717590975606e-06   -4.08184018664290173e-06   -1.71595191342995680e-06
2044-02-25T13:28:09.949969    -1.01599192123040646e+08    1.00614096500726983e+08    4.22825995376971513e+07   -2.19074629703933041e+01   -1.86922223264879719e+01   -8.05607417766266032e+00    4.06715596049507140e-06   -4.02780597127671334e-06   -1.69266112364757661e-06
2044-02-26T09:37:22.307425    -1.03177870162507057e+08    9.92473787702583671e+07    4.16936780694108829e+07   -2.16100899797654051e+01   -1.89824630717537559e+01   -8.17802494069413122e+00    4.13017009966809546e-06   -3.97291573763926627e-06   -1.66901064559840463e-06
2044-02-27T05:46:34.664881    -1.04734808030518949e+08    9.78597486033298522e+07    4.10959713457540274e+07   -2.13081773111311961e+01   -1.92686907132126564e+01   -8.29824691498998845e+00    4.19229579661461565e-06   -3.91718157292858276e-06   -1.64500568716378114e-06
2044-02-28T01:59:42.139144    -1.06274616513414189e+08    9.64469025692501068e+07    4.04876267826850340e+07   -2.10007898063441232e+01   -1.95517521537071843e+01   -8.41709561239021831e+00    4.25371680707051900e-06   -3.86043153714889386e-06   -1.62057223212835435e-06
2044-02-28T22:12:49.613405    -1.07791889156480908e+08    9.50136042788867950e+07    3.98706965580142587e+07   -2.06889650635064122e+01   -1.98306528313888535e+01   -8.53415323824669336e+00    4.31421672938946928e-06   -3.80285737714057350e-06   -1.59579288050585701e-06
2044-02-29T18:25:57.087668    -1.09286305471167296e+08    9.35601587619763017e+07    3.92453119533213675e+07   -2.03727706029934836e+01   -2.01053332308847423e+01   -8.64939481805548915e+00    4.37378249043244183e-06   -3.74447204560594791e-06   -1.57067320448642354e-06
2044-03-01T14:39:04.561929    -1.10757549850984052e+08    9.20868753268241137e+07    3.86116060454831943e+07   -2.00522748908633375e+01   -2.03757347848847843e+01   -8.76279578511586976e+00    4.43240118347611708e-06   -3.68528864210419626e-06   -1.54521883804041574e-06
2044-03-02T10:52:12.036192    -1.12205311697562024e+08    9.05940675082013011e+07    3.79697136838838905e+07   -1.97275473257448368e+01   -2.06417998852394895e+01   -8.87433198519183541e+00    4.49006009478495039e-06   -3.62532042371578764e-06   -1.51943548121435489e-06
2044-03-03T07:05:19.510454    -1.13629285518181995e+08    8.90820530060767233e+07    3.73197714638746679e+07   -1.93986582239690399e+01   -2.09034718947269589e+01   -8.98397968144220904e+00    4.54674672538632157e-06   -3.56458081284892437e-06   -1.49332890324691866e-06
2044-03-04T03:18:26.984716    -1.15029171000775173e+08    8.75511536169903874e+07    3.66619176972202510e+07   -1.90656788032899698e+01   -2.11606951592842165e+01   -9.09171555953462551e+00    4.60244880805562316e-06   -3.50308340219177769e-06   -1.46690494450667523e-06
